OBJECT_NAME,OBJECT_ID,EPOCH,MEAN_MOTION,ECCENTRICITY,INCLINATION,RA_OF_ASC_NODE,ARG_OF_PERICENTER,MEAN_ANOMALY,EPHEMERIS_TYPE,CLASSIFICATION_TYPE,NORAD_CAT_ID,ELEMENT_SET_NO,REV_AT_EPOCH,BSTAR,MEAN_MOTION_DOT,MEAN_MOTION_DDOT
COSMOS 2507 (RODNIK-S 13),2015-050A,2026-05-20T22:40:14.502720,12.42925911,.00110936,82.4908,96.6307,52.2117,307.9966,0,U,40920,999,48347,.2651167E-3,.47E-6,0
COSMOS 2508 (RODNIK-S 14),2015-050B,2026-05-20T23:30:59.186016,12.42912883,.00155537,82.4862,95.1241,82.0611,278.2233,0,U,40921,999,48346,-.1141145E-3,-.6E-7,0
COSMOS 2509 (RODNIK-S 15),2015-050C,2026-05-20T22:03:23.031648,12.42882818,.00157651,82.4869,95.2614,98.1920,262.0949,0,U,40922,999,48349,.35064779E-3,.59E-6,0
LINGQIAO VIDEO A,2015-057B,2026-05-20T22:21:05.019840,14.77347614,.0016964,97.6619,137.0802,3.7412,356.3923,0,U,40959,999,57138,-.1342698E-5,-.58E-6,0
LINGQIAO VIDEO B,2015-057C,2026-05-20T23:27:50.065056,14.77455046,.00171002,97.6585,138.2951,3.7151,356.4184,0,U,40960,999,57143,.64472137E-4,.412E-5,0
JILIN-1,2015-057D,2026-05-20T22:27:14.708160,14.78108348,.00168472,97.6509,141.6571,357.9093,2.2046,0,U,40961,999,57158,.74823326E-4,.494E-5,0
FOX-1A (AO-85),2015-058D,2026-05-20T22:01:15.678048,14.90792081,.01292794,64.7762,3.7192,67.2984,294.1734,0,U,40967,999,10950,.19972129E-3,.2131E-4,0
SINOD-D 1,2015-058E,2026-05-20T14:23:24.090432,14.95670429,.01177822,64.7759,345.2919,64.1616,297.1590,0,U,40968,999,11253,.23905025E-3,.2883E-4,0
ELEKTRO-L 2,2015-074A,2026-05-20T16:27:50.859648,1.00271577,.0001492,6.6263,70.8503,255.7673,144.1802,0,U,41105,999,3823,0,-.123E-5,0
DAMPE,2015-078A,2026-05-20T23:23:25.980000,15.30708212,.00122177,97.4562,146.3097,164.2282,195.9342,0,U,41173,999,58038,.32884657E-4,.9E-5,0
ORBCOMM FM114,2015-081A,2026-05-20T05:47:02.349888,14.58821869,.0001414,47.0031,134.1264,49.0394,311.0614,0,U,41179,999,55367,.62358E-4,.123E-5,0
ORBCOMM FM110,2015-081D,2026-05-20T03:52:07.173696,14.58830149,.00039599,47.0004,133.9522,299.7747,60.2744,0,U,41182,999,55353,.12619766E-3,.425E-5,0
ORBCOMM FM112,2015-081F,2026-05-20T17:57:43.615008,14.58856998,.00024583,47.0008,39.9913,73.8029,286.3128,0,U,41184,999,55494,.11663395E-3,.38E-5,0
ORBCOMM FM113,2015-081G,2026-05-20T10:48:28.677888,14.58823256,.0001033,47.0019,41.7643,63.5586,296.5405,0,U,41185,999,55488,.768282E-4,.192E-5,0
ORBCOMM FM108,2015-081J,2026-05-20T18:07:42.099168,14.58826707,.00019294,47.0055,311.8902,75.0358,285.0741,0,U,41187,999,55607,.10168768E-3,.309E-5,0
ORBCOMM FM117,2015-081K,2026-05-20T20:35:12.364800,14.58824501,.00024072,47.0019,310.0480,83.6133,276.5027,0,U,41188,999,55613,.10176344E-3,.309E-5,0
ORBCOMM FM116,2015-081L,2026-05-20T10:15:37.048896,14.58834181,.00021728,47.0033,41.8702,299.2842,60.7827,0,U,41189,999,55488,.11062314E-3,.351E-5,0
HORYU-4,2016-012D,2026-05-20T12:21:57.642336,15.80155358,.00041775,30.9886,279.6091,88.1764,271.9372,0,U,41340,999,56641,.74679248E-3,.148657E-2,0
ZIYUAN 3-02 (ZY 3-02),2016-033A,2026-05-21T08:29:47.983776,15.21180476,.0013449,97.3834,217.6426,29.9328,330.2674,0,U,41556,999,55390,.19172E-3,.4214E-4,0
CARTOSAT-2C,2016-040A,2026-05-20T23:46:29.875584,15.19241294,.00088127,97.4490,201.3386,221.8678,138.1883,0,U,41599,999,54958,.96729427E-4,.1971E-4,0
LAPAN-A3,2016-040E,2026-05-20T23:19:49.371744,15.32913307,.00121931,97.1489,138.0176,109.8409,250.4150,0,U,41603,999,55064,.72880923E-4,.2247E-4,0
GAOFEN-3,2016-049A,2026-05-20T22:58:16.108032,14.42210570,.0000943,98.4015,149.1543,88.2800,271.8498,0,U,41727,999,51472,-.53167553E-4,-.219E-5,0
CAS-2T & KS-1Q,2016-066G,2026-05-20T16:09:54.097920,14.44601389,.03414567,98.3827,216.7220,212.8758,145.0779,0,U,41847,999,50082,.10657749E-3,.691E-5,0
YUNHAI-1 01,2016-068A,2026-05-20T23:58:55.244064,14.32718442,.00065633,98.5838,152.2592,109.3852,250.8042,0,U,41857,999,49793,.90209573E-4,.202E-5,0
RESOURCESAT-2A,2016-074A,2026-05-20T23:21:58.036896,14.21606428,.00029046,98.7527,214.6989,136.0512,224.0896,0,U,41877,999,49043,.50278032E-4,.66E-6,0
