COSMOS 2507 (RODNIK-S *)
1 40920U 15050A   26140.94461230  .00000047  00000+0  26512-3 0  9997
2 40920  82.4908  96.6307 0011093  52.2117 307.9966 12.42925911483473
COSMOS 2508 (RODNIK-S *)
1 40921U 15050B   26140.97985169 -.00000006  00000+0 -11411-3 0  9992
2 40921  82.4862  95.1241 0015553  82.0611 278.2233 12.42912883483469
COSMOS 2509 (RODNIK-S *)
1 40922U 15050C   26140.91901657  .00000059  00000+0  35065-3 0  9994
2 40922  82.4869  95.2614 0015765  98.1920 262.0949 12.42882818483490
LINGQIAO VIDEO A        
1 40959U 15057B   26140.93130810 -.00000058  00000+0 -13427-5 0  9999
2 40959  97.6619 137.0802 0016964   3.7412 356.3923 14.77347614571380
LINGQIAO VIDEO B        
1 40960U 15057C   26140.97766279  .00000412  00000+0  64472-4 0  9996
2 40960  97.6585 138.2951 0017100   3.7151 356.4184 14.77455046571430
JILIN-1                 
1 40961U 15057D   26140.93558690  .00000494  00000+0  74823-4 0  9990
2 40961  97.6509 141.6571 0016847 357.9093   2.2046 14.78108348571589
FOX-1A (AO-85)          
1 40967U 15058D   26140.91754257  .00002131  00000+0  19972-3 0  9995
2 40967  64.7762   3.7192 0129279  67.2984 294.1734 14.90792081109504
SINOD-D 1               
1 40968U 15058E   26140.59958438  .00002883  00000+0  23905-3 0  9992
2 40968  64.7759 345.2919 0117782  64.1616 297.1590 14.95670429112532
ELEKTRO-L 2             
1 41105U 15074A   26140.68600532 -.00000123  00000+0  00000+0 0  9996
2 41105   6.6263  70.8503 0001492 255.7673 144.1802  1.00271577 38236
DAMPE                   
1 41173U 15078A   26140.97460625  .00000900  00000+0  32885-4 0  9997
2 41173  97.4562 146.3097 0012217 164.2282 195.9342 15.30708212580385
ORBCOMM FM114           
1 41179U 15081A   26140.24099942  .00000123  00000+0  62358-4 0  9992
2 41179  47.0031 134.1264 0001414  49.0394 311.0614 14.58821869553673
ORBCOMM FM110           
1 41182U 15081D   26140.16119414  .00000425  00000+0  12620-3 0  9995
2 41182  47.0004 133.9522 0003959 299.7747  60.2744 14.58830149553536
ORBCOMM FM112           
1 41184U 15081F   26140.74842147  .00000380  00000+0  11663-3 0  9993
2 41184  47.0008  39.9913 0002458  73.8029 286.3128 14.58856998554941
ORBCOMM FM113           
1 41185U 15081G   26140.45033192  .00000192  00000+0  76828-4 0  9990
2 41185  47.0019  41.7643 0001033  63.5586 296.5405 14.58823256554882
ORBCOMM FM108           
1 41187U 15081J   26140.75534837  .00000309  00000+0  10169-3 0  9992
2 41187  47.0055 311.8902 0001929  75.0358 285.0741 14.58826707556075
ORBCOMM FM117           
1 41188U 15081K   26140.85778200  .00000309  00000+0  10176-3 0  9996
2 41188  47.0019 310.0480 0002407  83.6133 276.5027 14.58824501556135
ORBCOMM FM116           
1 41189U 15081L   26140.42751214  .00000351  00000+0  11062-3 0  9998
2 41189  47.0033  41.8702 0002172 299.2842  60.7827 14.58834181554885
HORYU-4                 
1 41340U 16012D   26140.51525049  .00148657  00000+0  74679-3 0  9992
2 41340  30.9886 279.6091 0004177  88.1764 271.9372 15.80155358566419
ZIYUAN 3-02 (ZY 3-02)   
1 41556U 16033A   26141.35402759  .00004214  00000+0  19172-3 0  9996
2 41556  97.3834 217.6426 0013449  29.9328 330.2674 15.21180476553901
CARTOSAT-2C             
1 41599U 16040A   26140.99062356  .00001971  00000+0  96729-4 0  9996
2 41599  97.4490 201.3386 0008812 221.8678 138.1883 15.19241294549580
LAPAN-A3                
1 41603U 16040E   26140.97209921  .00002247  00000+0  72881-4 0  9991
2 41603  97.1489 138.0176 0012193 109.8409 250.4150 15.32913307550648
GAOFEN-3                
1 41727U 16049A   26140.95713088 -.00000219  00000+0 -53168-4 0  9995
2 41727  98.4015 149.1543 0000943  88.2800 271.8498 14.42210570514723
CAS-2T & KS-1Q          
1 41847U 16066G   26140.67354280  .00000691  00000+0  10658-3 0  9999
2 41847  98.3827 216.7220 0341456 212.8758 145.0779 14.44601389500827
YUNHAI-1 01             
1 41857U 16068A   26140.99925051  .00000202  00000+0  90210-4 0  9998
2 41857  98.5838 152.2592 0006563 109.3852 250.8042 14.32718442497931
RESOURCESAT-2A          
1 41877U 16074A   26140.97358839  .00000066  00000+0  50278-4 0  9997
2 41877  98.7527 214.6989 0002904 136.0512 224.0896 14.21606428490434
